ONEWEB-0326             
1 49195U 21083K   23034.42428485  .00000044  00000+0  79240-4 0  9994
2 49195  87.9194 219.7755 0002011 110.8191 249.3156 13.18686930 67928
ONEWEB-0327             
1 49196U 21083L   23035.23574594  .00000069  00000+0  14226-3 0  9997
2 49196  87.9192 219.5909 0002307 108.3043 251.8340 13.18682134 69334
ONEWEB-0328             
1 49197U 21083M   23034.41087604 -.00000168  00000+0 -49482-3 0  9992
2 49197  87.9037 204.6028 0001476 103.1207 257.0087 13.13468759 69461
ONEWEB-0331             
1 49198U 21083N   23034.64558960  .00000025  00000+0  30006-4 0  9999
2 49198  87.9191 219.7527 0001794 103.4033 256.7299 13.18686118 67967
ONEWEB-0333             
1 49199U 21083P   23034.40558787 -.00000116  00000+0 -35205-3 0  9999
2 49199  87.9040 204.6041 0001511  87.3592 272.7711 13.13473191 69477
ONEWEB-0334             
1 49200U 21083Q   23035.33363707  .00000029  00000+0  38306-4 0  9998
2 49200  87.9337 159.0313 0001893  70.8235 289.3103 13.20773073 75878
ONEWEB-0335             
1 49201U 21083R   23034.40136791  .00000012  00000+0 -12794-5 0  9994
2 49201  87.9039 204.5973 0001399 103.8117 256.3168 13.13473423 69486
ONEWEB-0336             
1 49202U 21083S   23035.20755369 -.00002593  00000+0 -71363-2 0  9993
2 49202  87.9045 204.4381 0001093  91.8889 268.2366 13.13482385 70884
ONEWEB-0337             
1 49203U 21083T   23034.39286572  .00000253  00000+0  65657-3 0  9997
2 49203  87.9038 204.6018 0001419 101.8505 258.2784 13.13472329 70773
ONEWEB-0338             
1 49204U 21083U   23035.33995364  .00000002  00000+0 -27203-4 0  9998
2 49204  87.9297 159.0289 0001275  78.5812 281.5465 13.20770651 75907
ONEWEB-0339             
1 49205U 21083V   23034.46801391  .00000223  00000+0  57646-3 0  9995
2 49205  87.9036 204.5858 0001064  88.9143 271.2108 13.13469691 69460
ONEWEB-0340             
1 49206U 21083W   23035.23783917  .00000047  00000+0  87290-4 0  9998
2 49206  87.9195 219.6257 0001591  99.3248 260.8064 13.18685408 69291
ONEWEB-0341             
1 49207U 21083X   23034.41163122  .00000024  00000+0  27159-4 0  9991
2 49207  87.9193 219.7204 0000731 115.8525 244.2683 13.18688757 67910
ONEWEB-0342             
1 49208U 21083Y   23035.34414964  .00000143  00000+0  32032-3 0  9995
2 49208  87.9336 159.0356 0001406  88.7999 271.3295 13.20772624 75871
ONEWEB-0343             
1 49209U 21083Z   23035.24206957  .00000126  00000+0  28673-3 0  9993
2 49209  87.9192 219.5928 0000385 111.2462 248.8711 13.18686060 69365
ONEWEB-0344             
1 49210U 21083AA  23035.19487550 -.00000237  00000+0 -68256-3 0  9995
2 49210  87.9032 204.4459 0001645 105.7564 254.3747 13.13471279 70860
ONEWEB-0345             
1 49211U 21083AB  23035.21284115  .00000274  00000+0  71628-3 0  9997
2 49211  87.9040 204.4284 0001574 125.3545 234.7731 13.13472619 70879
ONEWEB-0346             
1 49212U 21083AC  23034.64348394  .00000038  00000+0  62920-4 0  9998
2 49212  87.9195 219.7034 0001878 106.9338 253.2000 13.18685755 67935
ONEWEB-0348             
1 49213U 21083AD  23035.33781062  .00000069  00000+0  13791-3 0  9994
2 49213  87.9338 158.9976 0001881 118.6074 241.5249 13.20775226 75902
ONEWEB-0350             
1 49214U 21083AE  23035.22238724  .00000388  00000+0  10284-2 0  9992
2 49214  87.9042 204.4532 0001459 111.9844 248.1440 13.13469863 70902
ONEWEB-0351             
1 49215U 21083AF  23035.33148337  .00000062  00000+0  12016-3 0  9990
2 49215  87.9309 159.0372 0001287  83.5556 276.5724 13.20775758 75871
ONEWEB-0352             
1 49216U 21083AG  23035.20334556 -.00000020  00000+0 -88979-4 0  9995
2 49216  87.9039 204.4409 0001196  83.6269 276.4996 13.13472022 70997
ONEWEB-0354             
1 49217U 21083AH  23035.35254858  .00000105  00000+0  22598-3 0  9994
2 49217  87.9338 158.9700 0001293 108.5585 251.5689 13.20773068 75915
ONEWEB-0355             
1 49218U 21083AJ  23034.39711750  .00000137  00000+0  33996-3 0  9996
2 49218  87.9037 204.6030 0001162  93.9205 266.2057 13.13467644 69465
ONEWEB-0357             
1 49219U 21083AK  23035.35042036  .00000095  00000+0  20133-3 0  9990
2 49219  87.9319 159.0226 0001462 112.6828 247.4460 13.20776358 75900
ONEWEB-0332             
1 49279U 21090A   23035.29887174  .00000191  00000+0  47987-3 0  9990
2 49279  87.9108 174.1601 0001316  81.5408 278.5871 13.14504482 66139
ONEWEB-0347             
1 49280U 21090B   23035.34205477  .00000032  00000+0  47578-4 0  9999
2 49280  87.9268 159.0084 0001956  82.3678 277.7678 13.20775469 68830
ONEWEB-0349             
1 49281U 21090C   23035.30625837  .00000047  00000+0  83429-4 0  9993
2 49281  87.9334 158.9993 0001691 120.7980 239.3320 13.20773254 68907
ONEWEB-0353             
1 49282U 21090D   23035.29039493  .00000201  00000+0  50753-3 0  9994
2 49282  87.9117 174.1333 0001509  87.9113 272.2190 13.14500490 67425
ONEWEB-0356             
1 49283U 21090E   23034.77387278  .00000062  00000+0  12098-3 0  9999
2 49283  87.9338 159.1069 0002642 112.4128 247.7286 13.20769467 67543
ONEWEB-0358             
1 49284U 21090F   23035.32940301  .00000113  00000+0  24496-3 0  9996
2 49284  87.9336 158.9735 0001938 117.9972 242.1358 13.20774374 69637
ONEWEB-0359             
1 49285U 21090G   23034.79699988 -.00000057  00000+0 -17264-3 0  9993
2 49285  87.9333 159.1159 0001320 124.1335 235.9924 13.20769624 68254
ONEWEB-0360             
1 49286U 21090H   23035.31887809  .00000062  00000+0  12127-3 0  9991
2 49286  87.9341 158.9999 0001670 109.2191 250.9123 13.20773442 68920
ONEWEB-0361             
1 49287U 21090J   23035.30205277  .00000072  00000+0  14405-3 0  9996
2 49287  87.9334 159.0024 0001690 109.3117 250.8199 13.20773959 68919
ONEWEB-0362             
1 49288U 21090K   23034.35304842 -.00000023  00000+0 -89946-4 0  9990
2 49288  87.9301 189.4626 0001613  91.7267 268.4050 13.19726203 64706
ONEWEB-0363             
1 49289U 21090L   23035.31678052  .00000007  00000+0 -14545-4 0  9999
2 49289  87.9354 158.9988 0001908 112.9745 247.1589 13.20769378 68922
ONEWEB-0364             
1 49290U 21090M   23035.34836125  .00000114  00000+0  24881-3 0  9992
2 49290  87.9275 159.0422 0001627  89.9952 270.1368 13.20770938 70054
ONEWEB-0365             
1 49291U 21090N   23034.36145543  .00000033  00000+0  49269-4 0  9999
2 49291  87.9299 189.4522 0001389  96.9213 263.2078 13.19729253 64216
ONEWEB-0366             
1 49292U 21090P   23035.36229204  .00000335  00000+0  86874-3 0  9995
2 49292  87.9117 174.1210 0001691  93.6694 266.4629 13.14503137 67423
ONEWEB-0367             
1 49293U 21090Q   23035.31468984  .00000071  00000+0  14219-3 0  9992
2 49293  87.9335 158.9985 0001715  92.7100 267.4230 13.20773358 68919
ONEWEB-0368             
1 49294U 21090R   23035.35468513  .00000159  00000+0  35795-3 0  9994
2 49294  87.9299 159.0577 0002159  85.2240 274.9139 13.20775947 70070
ONEWEB-0369             
1 49295U 21090S   23034.35724824 -.00000040  00000+0 -13126-3 0  9999
2 49295  87.9294 189.4531 0001638  94.5142 265.6178 13.19727635 64205
ONEWEB-0370             
1 49296U 21090T   23035.32099514  .00000013  00000+0 -45710-6 0  9995
2 49296  87.9337 158.9973 0001741 105.3892 254.7434 13.20772135 68950
ONEWEB-0371             
1 49297U 21090U   23035.35130142  .00000062  00000+0  12356-3 0  9992
2 49297  87.9300 189.2440 0001509  94.5233 265.6073 13.19726567 65668
ONEWEB-0372             
1 49298U 21090V   23035.31258063  .00000027  00000+0  34820-4 0  9994
2 49298  87.9335 158.9994 0001820  90.6183 269.5159 13.20770906 68929
ONEWEB-0373             
1 49299U 21090W   23035.33572292  .00000065  00000+0  12834-3 0  9992
2 49299  87.9282 159.0188 0002044 101.6176 258.5187 13.20775311 70110
ONEWEB-0374             
1 49300U 21090X   23035.34961390  .00000413  00000+0  10801-2 0  9995
2 49300  87.9119 174.1229 0001572  98.0892 262.0416 13.14501359 67411
ONEWEB-0375             
1 49301U 21090Y   23035.32522059  .00000062  00000+0  12053-3 0  9991
2 49301  87.9335 159.0035 0002348 117.1987 242.9386 13.20770231 69609
ONEWEB-0376             
1 49302U 21090Z   23035.34919177  .00000072  00000+0  14828-3 0  9998
2 49302  87.9297 189.2566 0001489  85.4158 274.7145 13.19724058 65654
ONEWEB-0377             
1 49303U 21090AA  23035.32309104 -.00000012  00000+0 -61246-4 0  9993
2 49303  87.9334 158.9989 0001447 111.0324 249.0965 13.20768982 69581
ONEWEB-0378             
1 49304U 21090AB  23035.29092911 -.00013193  00000+0 -32488-1 0  9992
2 49304  87.9327 159.0017 0001890  99.0853 261.0494 13.20854145 68882
ONEWEB-0379             
1 49305U 21090AC  23035.34325076  .00000055  00000+0  11271-3 0  9990
2 49305  87.9079 174.1252 0001581  98.7581 261.3727 13.14504355 67426
ONEWEB-0380             
1 49306U 21090AD  23035.34497102  .00000192  00000+0  44681-3 0  9994
2 49306  87.9288 189.2566 0001341 105.1871 254.9410 13.19726316 65628
ONEWEB-0381             
1 49307U 21090AE  23034.78017902  .00000031  00000+0  44177-4 0  9991
2 49307  87.9261 159.1176 0001733 112.6132 247.5185 13.20771126 67542
ONEWEB-0382             
1 49308U 21090AF  23034.76965431  .00000041  00000+0  68032-4 0  9996
2 49308  87.9333 159.1058 0002134 112.4432 247.6928 13.20771814 67538
ONEWEB-0383             
1 49309U 21090AG  23035.33689906 -.00000124  00000+0 -36991-3 0  9993
2 49309  87.9112 174.1096 0001752  98.2845 261.8483 13.14500628 67447
ONEWEB-0384             
1 49310U 21090AH  23035.29844264  .00013359  00000+0  32817-1 0  9993
2 49310  87.9331 158.9994 0002583 117.4255 242.7141 13.20685885 68920
ONEWEB-0385             
1 49311U 21090AJ  23035.29342582 -.00004410  00000+0 -10877-1 0  9992
2 49311  87.9315 159.0023 0002537  99.5353 260.6067 13.20815333 68903
ONEWEB-0386             
1 49312U 21090AK  23035.30836424  .00000068  00000+0  13654-3 0  9999
2 49312  87.9340 159.0021 0002086 100.2875 259.8494 13.20771082 68915
